{
    "links": {
        "self": "http://www.neowsapp.com/rest/v1/neo/3748550?api_key=iIulBulltgU6a56xZRHN4H3l9WmuAYTsLGpBGhQ2"
    },
    "id": "3748550",
    "neo_reference_id": "3748550",
    "name": "(2016 GT)",
    "designation": "2016 GT",
    "nasa_jpl_url": "http://ssd.jpl.nasa.gov/sbdb.cgi?sstr=3748550",
    "absolute_magnitude_h": 26.0,
    "estimated_diameter": {
        "kilometers": {
            "estimated_diameter_min": 0.0167708462,
            "estimated_diameter_max": 0.0375007522
        },
        "meters": {
            "estimated_diameter_min": 16.7708462163,
            "estimated_diameter_max": 37.5007521798
        },
        "miles": {
            "estimated_diameter_min": 0.0104209175,
            "estimated_diameter_max": 0.0233018799
        },
        "feet": {
            "estimated_diameter_min": 55.0224631002,
            "estimated_diameter_max": 123.0339677816
        }
    },
    "is_potentially_hazardous_asteroid": false,
    "close_approach_data": [
        {
            "close_approach_date": "2016-03-22",
            "close_approach_date_full": "2016-Mar-22 01:23",
            "epoch_date_close_approach": 1458609780000,
            "relative_velocity": {
                "kilometers_per_second": "7.826358836",
                "kilometers_per_hour": "28174.8918095335",
                "miles_per_hour": "17506.7820802071"
            },
            "miss_distance": {
                "astronomical": "0.0273597188",
                "lunar": "10.6429306132",
                "kilometers": "4092955.656278956",
                "miles": "2543244.7129873528"
            },
            "orbiting_body": "Earth"
        },
        {
            "close_approach_date": "2033-11-24",
            "close_approach_date_full": "2033-Nov-24 08:20",
            "epoch_date_close_approach": 2016433200000,
            "relative_velocity": {
                "kilometers_per_second": "22.2005529451",
                "kilometers_per_hour": "79921.9906025144",
                "miles_per_hour": "49660.4168829902"
            },
            "miss_distance": {
                "astronomical": "0.4992993952",
                "lunar": "194.2274647328",
                "kilometers": "74694126.014208224",
                "miles": "46412777.7161285312"
            },
            "orbiting_body": "Earth"
        },
        {
            "close_approach_date": "2041-04-05",
            "close_approach_date_full": "2041-Apr-05 11:36",
            "epoch_date_close_approach": 2248774560000,
            "relative_velocity": {
                "kilometers_per_second": "12.1150673296",
                "kilometers_per_hour": "43614.2423866853",
                "miles_per_hour": "27100.1941096601"
            },
            "miss_distance": {
                "astronomical": "0.1655117852",
                "lunar": "64.3840844428",
                "kilometers": "24760210.525817524",
                "miles": "15385281.3957648712"
            },
            "orbiting_body": "Earth"
        },
        {
            "close_approach_date": "2050-01-01",
            "close_approach_date_full": "2050-Jan-01 12:42",
            "epoch_date_close_approach": 2524653720000,
            "relative_velocity": {
                "kilometers_per_second": "7.5461942597",
                "kilometers_per_hour": "27166.2993347513",
                "miles_per_hour": "16880.0819394181"
            },
            "miss_distance": {
                "astronomical": "0.008724033",
                "lunar": "3.393648837",
                "kilometers": "1305096.75460971",
                "miles": "810949.519085598"
            },
            "orbiting_body": "Moon"
        },
        {
            "close_approach_date": "2050-01-02",
            "close_approach_date_full": "2050-Jan-02 03:34",
            "epoch_date_close_approach": 2524707240000,
            "relative_velocity": {
                "kilometers_per_second": "6.8222610883",
                "kilometers_per_hour": "24560.1399180016",
                "miles_per_hour": "15260.7158284938"
            },
            "miss_distance": {
                "astronomical": "0.0095123988",
                "lunar": "3.7003231332",
                "kilometers": "1423034.599070556",
                "miles": "884232.6974474328"
            },
            "orbiting_body": "Earth"
        }
    ],
    "orbital_data": {
        "orbit_id": "7",
        "orbit_determination_date": "2017-04-06 08:26:56",
        "first_observation_date": "2016-04-01",
        "last_observation_date": "2016-04-13",
        "data_arc_in_days": 12,
        "observations_used": 29,
        "orbit_uncertainty": "7",
        "minimum_orbit_intersection": ".00327697",
        "jupiter_tisserand_invariant": "4.520",
        "epoch_osculation": "2459000.5",
        "eccentricity": ".3677337323056123",
        "semi_major_axis": "1.474003104963986",
        "inclination": ".5696105588584001",
        "ascending_node_longitude": "337.0095468724084",
        "orbital_period": "653.6511421973963",
        "perihelion_distance": ".9319624417455186",
        "perihelion_argument": "159.1508883737964",
        "aphelion_distance": "2.016043768182454",
        "perihelion_time": "2458740.243311548487",
        "mean_anomaly": "143.3370215304399",
        "mean_motion": ".550752498939692",
        "equinox": "J2000",
        "orbit_class": {
            "orbit_class_type": "APO",
            "orbit_class_description": "Near-Earth asteroid orbits which cross the Earth’s orbit similar to that of 1862 Apollo",
            "orbit_class_range": "a (semi-major axis) > 1.0 AU; q (perihelion) < 1.017 AU"
        }
    },
    "is_sentry_object": false
}